PHASE 3B (AO-10)        
1 14129U 83058B   20357.22733345  .00000120  00000-0  00000+0 0  9999
2 14129  25.7382 184.3459 6075015 294.6806  15.0443  2.05870543254258
UOSAT 2 (UO-11)         
1 14781U 84021B   20358.05232243  .00000196  00000-0  30049-4 0  9991
2 14781  97.5895   0.6327 0007220 308.1391  51.9172 14.83228889980780
LUSAT (LO-19)           
1 20442U 90005G   20358.45971639  .00000026  00000-0  25931-4 0  9990
2 20442  98.7180 306.5636 0011110 323.4533  36.5892 14.32971345615681
EYESAT A (AO-27)        
1 22825U 93061C   20358.48828340  .00000007  00000-0  20895-4 0  9998
2 22825  98.9246   5.7161 0008372 180.0302 180.0881 14.30101553421100
ITAMSAT (IO-26)         
1 22826U 93061D   20358.29039984  .00000014  00000-0  23392-4 0  9999
2 22826  98.9188   5.4396 0009118 168.8975 191.2410 14.30438873421292
RADIO ROSTO (RS-15)     
1 23439U 94085A   20357.58884907 -.00000037  00000-0  15882-3 0  9991
2 23439  64.8167 301.9995 0155059   7.0417 353.2636 11.27569758 70393
JAS-2 (FO-29)           
1 24278U 96046B   20357.79757799 -.00000022  00000-0  16920-4 0  9992
2 24278  98.5873  83.0328 0349427 247.1240 109.2658 13.53101438202608
TECHSAT 1B (GO-32)      
1 25397U 98043D   20357.79474604 -.00000001  00000-0  19094-4 0  9997
2 25397  98.7511 298.0341 0000690 175.1981 184.9204 14.23697715166571
ISS (ZARYA)             
1 25544U 98067A   20358.55759243  .00001892  00000-0  42175-4 0  9991
2 25544  51.6445 131.4633 0001491 152.3099 305.8603 15.49218984261377
PCSAT (NO-44)           
1 26931U 01043C   20357.44265285 -.00000031  00000-0  20043-4 0  9990
2 26931  67.0518  17.2596 0007356 273.3478  86.6782 14.30599866  3927
SAUDISAT 1C (SO-50)     
1 27607U 02058C   20358.44558922  .00000108  00000-0  35964-4 0  9994
2 27607  64.5540 156.5318 0029777 101.8204 258.6241 14.75694389968743
CUTE-1 (CO-55)          
1 27844U 03031E   20357.47914787  .00000060  00000-0  46665-4 0  9993
2 27844  98.6818   2.3726 0009087 227.1582 132.8833 14.22277153906825
CUBESAT XI-IV (CO-57)   
1 27848U 03031J   20357.49032877  .00000046  00000-0  40879-4 0  9995
2 27848  98.6879   2.9512 0008832 241.1069 118.9223 14.21858739906662
MOZHAYETS 4 (RS-22)     
1 27939U 03042A   20358.47076246  .00000173  00000-0  39588-4 0  9991
2 27939  98.1157 131.0946 0014229 114.8381 245.4305 14.66925666921726
CUBESAT XI-V            
1 28895U 05043F   20358.35019408  .00000207  00000-0  48469-4 0  9996
2 28895  98.0342 129.7261 0017639  48.6361 311.6355 14.63844811808473
CUTE-1.7+APD II (CO-65) 
1 32785U 08021C   20358.09196190  .00000446  00000-0  53454-4 0  9998
2 32785  97.5920 338.0112 0011858 223.2930 136.7357 14.88594343686002
DELFI-C3 (DO-64)        
1 32789U 08021G   20357.72105795  .00003110  00000-0  20409-3 0  9996
2 32789  97.3981  33.7666 0012635  36.4730 323.7357 15.08305022690280
SEEDS II (CO-66)        
1 32791U 08021J   20357.96584989  .00000585  00000-0  64148-4 0  9993
2 32791  97.5553 343.9493 0012865 187.7891 172.3130 14.91222214686551
YUBILEINY (RS-30)       
1 32953U 08025A   20358.37197641  .00000028  00000-0  12906-3 0  9994
2 32953  82.5015 160.4395 0019192   3.1643 356.9556 12.43099110571105
KKS-1 (KISEKI)          
1 33499U 09002H   20358.16995233  .00000181  00000-0  34467-4 0  9993
2 33499  98.2909 217.9363 0007950 239.9944 120.0476 14.75597786640840
SWISSCUBE               
1 35932U 09051B   20358.48889357  .00000187  00000-0  53132-4 0  9991
2 35932  98.6067 186.8824 0006514 267.6295  92.4156 14.56467024597388
BEESAT-1                
1 35933U 09051C   20357.50024064  .00000156  00000-0  46172-4 0  9992
2 35933  98.6047 187.7220 0004738 287.2776  72.7902 14.56533167597275
ITUPSAT1                
1 35935U 09051E   20358.49922489  .00000145  00000-0  44516-4 0  9999
2 35935  98.6152 188.9236 0007046 282.6696  77.3713 14.55672529597208
XIWANG-1 (HOPE-1)       
1 36122U 09072B   20357.51600052 -.00000036  00000-0  16330-4 0  9995
2 36122 100.1121 339.6843 0007866 146.3356 213.8259 13.16358172529613
JUGNU                   
1 37839U 11058B   20357.32851872  .00000289  00000-0  12216-4 0  9993
2 37839  19.9599 223.4035 0018854 299.4871 216.8465 14.12698232475386
SRMSAT                  
1 37841U 11058D   20358.16723163  .00000313  00000-0  26847-4 0  9993
2 37841  19.9723 286.5506 0012019 156.7254 338.4475 14.10681214474930
M-CUBED & EXP-1 PRIME   
1 37855U 11061F   20358.45338161  .00003790  00000-0  19046-3 0  9998
2 37855 101.7264 184.5700 0168923 233.8371 124.7114 15.06958248500139
STRAND-1                
1 39090U 13009E   20358.50730040  .00000045  00000-0  30749-4 0  9997
2 39090  98.4376 198.7131 0010280  83.1939 277.0416 14.35159873409820
SOMP                    
1 39134U 13015E   20358.17281141  .00002871  00000-0  13463-3 0  9991
2 39134  64.8648  25.3671 0015416 220.3737 139.6247 15.21765413424763
BEESAT-3                
1 39135U 13015F   20357.54688708  .00002090  00000-0  10926-3 0  9996
2 39135  64.8671  53.7617 0021264 210.6656 149.3229 15.18737560424165
BEESAT-2                
1 39136U 13015G   20357.47190188  .00002069  00000-0  10951-3 0  9993
2 39136  64.8774  59.6835 0031344 264.4251  95.3300 15.18122703423655
ZACUBE-1 (TSHEPISOSAT)  
1 39417U 13066B   20358.02863948  .00000492  00000-0  67573-4 0  9995
2 39417  97.5775 345.6853 0059282  20.9548 339.4075 14.81389117382955
GOMX-1                  
1 39430U 13066Q   20358.55182851  .00000316  00000-0  66356-4 0  9998
2 39430  97.8066 285.7903 0149907 309.3357  49.4634 14.59507813377382
CUBEBUG-2 (LO-74)       
1 39440U 13066AA  20358.48652624  .00000447  00000-0  68365-4 0  9998
2 39440  97.6539 330.7747 0081447  86.5917 274.4606 14.76122262381668
FUNCUBE-1 (AO-73)       
1 39444U 13066AE  20357.51157528  .00000606  00000-0  80137-4 0  9996
2 39444  97.5697 347.5142 0058202  14.0202 346.2612 14.82268954381815
UWE-3                   
1 39446U 13066AG  20358.48989729  .00000499  00000-0  72027-4 0  9990
2 39446  97.6173 337.8708 0071030  53.8616 306.9142 14.78657354381093
SPROUT                  
1 39770U 14029E   20358.25665490  .00000859  00000-0  99378-4 0  9999
2 39770  97.9054 103.8825 0009967  70.2339 290.0004 14.88077207357132
UNISAT-6                
1 40012U 14033C   20357.49107347  .00000278  00000-0  48129-4 0  9995
2 40012  97.6880 203.0493 0059452 112.0345 248.7194 14.74212407350127
DUCHIFAT-1              
1 40021U 14033M   20358.39780232  .00000759  00000-0  82305-4 0  9993
2 40021  97.9577 290.9221 0013631  30.0886 330.1113 14.91113585354043
QB50P1                  
1 40025U 14033R   20358.06143422  .00000522  00000-0  61083-4 0  9993
2 40025  97.9243 282.4044 0013464  43.5569 316.6709 14.89283323353670
NUDT-PHONESAT           
1 40900U 15049B   20358.29799005  .00003645  00000-0  14805-3 0  9990
2 40900  97.4278   7.6786 0013566  45.2033  78.2057 15.25133359291967
ZDPS 2A                 
1 40901U 15049C   20358.39826816  .00001957  00000-0  97023-4 0  9991
2 40901  97.4629   1.6756 0014940  76.6890  29.0765 15.18841992291247
ZDPS 2B                 
1 40902U 15049D   20358.45580417  .00001942  00000-0  96257-4 0  9995
2 40902  97.4643 359.0108 0014944  73.9889  83.9485 15.18851797291227
XW-2A                   
1 40903U 15049E   20358.42487638  .00003511  00000-0  78647-4 0  9991
2 40903  97.2630  47.3215 0011131 300.1653 156.6314 15.44065648295625
KAITUO 1A               
1 40904U 15049F   20358.46032378  .00000850  00000-0  47689-4 0  9998
2 40904  97.4824 356.7168 0016217  88.0622  35.7244 15.15930105290873
2015-049G               
1 40905U 15049G   20358.42174866  .00000408  00000-0  25518-4 0  9990
2 40905  97.4933 353.8070 0017250  86.3550  17.7289 15.14756714290683
XW-2C                   
1 40906U 15049H   20358.39625370  .00001172  00000-0  63657-4 0  9993
2 40906  97.4824 357.0471 0016429  79.1682  30.5346 15.16378755290883
XW-2D                   
1 40907U 15049J   20358.42434942  .00000969  00000-0  52814-4 0  9997
2 40907  97.4818 356.8173 0015759  76.0951  29.8963 15.16648795290917
LILACSAT-2              
1 40908U 15049K   20358.46320282  .00000739  00000-0  43951-4 0  9990
2 40908  97.4984 354.9494 0017551  88.5042  64.9926 15.14225717290594
XW-2F                   
1 40910U 15049M   20358.40262561  .00001814  00000-0  91172-4 0  9995
2 40910  97.4714 359.6454 0016149  65.9691  43.7840 15.18437587291008
XW-2B                   
1 40911U 15049N   20358.42358317  .00001073  00000-0  58283-4 0  9996
2 40911  97.4823 357.5144 0015647  77.1538  60.6305 15.16571373290801
KAITUO 1B               
1 40912U 15049P   20358.42498938  .00001901  00000-0  88895-4 0  9993
2 40912  97.4477   3.9703 0015857  43.0437  62.8671 15.20895034291431
TIANWANG 1C (TW-1C)     
1 40926U 15051B   20358.44465487  .00118296  00000-0  55905-3 0  9997
2 40926  97.0557  52.6549 0003904  93.8241 323.8126 15.82702128296705
TIANWANG 1A (TW-1A)     
1 40928U 15051D   20358.36384935  .00005079  00000-0  11299-3 0  9990
2 40928  97.0936  21.5578 0008978 208.0821 277.5010 15.44049090294508
LAPAN-A2                
1 40931U 15052B   20357.58746474  .00000641  00000-0  19804-6 0  9991
2 40931   5.9972  73.6973 0013200  55.9615 304.1765 14.76655668283118
E-ST@R-II               
1 41459U 16025D   20358.53302279  .00002378  00000-0  12182-3 0  9993
2 41459  98.1205 118.6536 0161524 295.3712  63.0874 15.07135993255911
AAUSAT 4                
1 41460U 16025E   20358.43154116  .00003095  00000-0  15134-3 0  9996
2 41460  98.1193 121.6017 0149923 282.1297  76.3178 15.09752096256149
NUSAT-1 (FRESCO)        
1 41557U 16033B   20358.43158318  .00002255  00000-0  83395-4 0  9992
2 41557  97.3995  87.4515 0014344 134.1595 356.5224 15.28665542254631
BEESAT-4                
1 41619U 16040W   20358.16103016  .00003210  00000-0  13254-3 0  9992
2 41619  97.2967  53.0298 0009631 228.1342 131.9075 15.24689256238143
